{
"type": "FeatureCollection",
"name": "sens_geoJson",
"crs": { "type": "name", "properties": { "name": "urn:ogc:def:crs:EPSG::2154" } },
"features": [
{ "type": "Feature", "properties": { "id": 1, "TYPE": 0 }, "geometry": { "type": "LineString", "coordinates": [ [ 1013543.252099113888107, 6286314.114680793136358 ], [ 1013787.238922641612589, 6286375.111386675387621 ], [ 1013967.018687346251681, 6286566.127386673353612 ] ] } },
{ "type": "Feature", "properties": { "id": 2, "TYPE": 0 }, "geometry": { "type": "LineString", "coordinates": [ [ 1014086.055411084089428, 6286904.502511185593903 ], [ 1014183.579864111612551, 6286997.906212677247822 ], [ 1014338.794838648755103, 6286985.543958067893982 ] ] } },
{ "type": "Feature", "properties": { "id": 3, "TYPE": 0 }, "geometry": { "type": "LineString", "coordinates": [ [ 1014038.449040287057869, 6286713.402327848598361 ], [ 1014110.681981462868862, 6286769.182210201397538 ], [ 1014163.652804991928861, 6286878.334210200235248 ] ] } },
{ "type": "Feature", "properties": { "id": 4, "TYPE": 0 }, "geometry": { "type": "LineString", "coordinates": [ ] } },
{ "type": "Feature", "properties": { "id": 4, "TYPE": 0 }, "geometry": { "type": "LineString", "coordinates": [ ] } },
{ "type": "Feature", "properties": { "id": 5, "TYPE": 0 }, "geometry": { "type": "LineString", "coordinates": [ ] } },
{ "type": "Feature", "properties": { "id": 4, "TYPE": 0 }, "geometry": { "type": "LineString", "coordinates": [ ] } },
{ "type": "Feature", "properties": { "id": 5, "TYPE": 0 }, "geometry": { "type": "LineString", "coordinates": [ ] } },
{ "type": "Feature", "properties": { "id": 6, "TYPE": 0 }, "geometry": { "type": "LineString", "coordinates": [ [ 1016188.846061386517249, 6286505.313294731080532 ], [ 1016173.484013167093508, 6286593.645071992650628 ], [ 1016182.234530446468852, 6286720.156202995218337 ] ] } },
{ "type": "Feature", "properties": { "id": 3, "TYPE": 0 }, "geometry": { "type": "LineString", "coordinates": [ [ 1015473.453411283669993, 6286038.226450188085437 ], [ 1015937.255929408711381, 6286258.602316982112825 ], [ 1015990.512147025554441, 6286464.526358433999121 ] ] } },
{ "type": "Feature", "properties": { "id": 5, "TYPE": 0 }, "geometry": { "type": "LineString", "coordinates": [ ] } },
{ "type": "Feature", "properties": { "id": 5, "TYPE": 0 }, "geometry": { "type": "LineString", "coordinates": [ [ 1016913.293529820395634, 6285608.5402463208884 ], [ 1016967.128341062460095, 6285463.984225119464099 ], [ 1017183.005427553784102, 6285226.613931023515761 ] ] } },
{ "type": "Feature", "properties": { "id": 6, "TYPE": 0 }, "geometry": { "type": "LineString", "coordinates": [ [ 1017414.003605974954553, 6285051.411425576545298 ], [ 1017513.259058766416274, 6285209.670343260280788 ], [ 1017509.607902402873151, 6285428.525268834084272 ] ] } },
{ "type": "Feature", "properties": { "id": 7, "TYPE": 0 }, "geometry": { "type": "LineString", "coordinates": [ [ 1017104.190413537668064, 6284597.905658290721476 ], [ 1017046.211552651715465, 6284488.289374428801239 ], [ 1016955.61958251753822, 6284425.780915035866201 ] ] } },
{ "type": "Feature", "properties": { "id": 8, "TYPE": 0 }, "geometry": { "type": "LineString", "coordinates": [ ] } },
{ "type": "Feature", "properties": { "id": 9, "TYPE": 0 }, "geometry": { "type": "LineString", "coordinates": [ [ 1017553.946705271257088, 6285842.811077990569174 ], [ 1017627.960042461403646, 6286084.308783198706806 ], [ 1017678.90995055437088, 6286237.008416053839028 ] ] } },
{ "type": "Feature", "properties": { "id": 77, "TYPE": 0 }, "geometry": { "type": "LineString", "coordinates": [ [ 1017786.11063571088016, 6284042.400329654105008 ], [ 1017820.93881454016082, 6283705.748995766043663 ], [ 1017998.504940960672684, 6283557.81237624026835 ] ] } },
{ "type": "Feature", "properties": { "id": 55, "TYPE": 0 }, "geometry": { "type": "LineString", "coordinates": [ [ 1018718.415546440402977, 6282916.272874436341226 ], [ 1018459.894382996251807, 6283223.264683144167066 ], [ 1018441.383445758372545, 6283452.156339693814516 ] ] } },
{ "type": "Feature", "properties": { "id": 56, "TYPE": 0 }, "geometry": { "type": "LineString", "coordinates": [ [ 1018474.318111788365059, 6284254.734598334878683 ], [ 1018642.929345914162695, 6283980.467327662743628 ], [ 1018986.251821596059017, 6283957.328852853737772 ] ] } },
{ "type": "Feature", "properties": { "id": 33, "TYPE": 0 }, "geometry": { "type": "LineString", "coordinates": [ [ 1019863.143993750796653, 6283925.11541261151433 ], [ 1019756.25563362322282, 6284343.533064164221287 ], [ 1019716.98002693138551, 6284718.828833810985088 ] ] } },
{ "type": "Feature", "properties": { "id": 22, "TYPE": 0 }, "geometry": { "type": "LineString", "coordinates": [ [ 1020471.56941130082123, 6281586.520989255979657 ], [ 1020387.800144757493399, 6281691.332581189461052 ], [ 1020349.173758612363599, 6281797.640088974498212 ] ] } },
{ "type": "Feature", "properties": { "id": 23, "TYPE": 0 }, "geometry": { "type": "LineString", "coordinates": [ ] } },
{ "type": "Feature", "properties": { "id": null, "TYPE": 0 }, "geometry": { "type": "LineString", "coordinates": [ [ 1021318.21540874033235, 6280872.277138493955135 ], [ 1021535.732815526193008, 6280683.486699854023755 ], [ 1021674.523266489617527, 6280462.450209136120975 ] ] } },
{ "type": "Feature", "properties": { "id": null, "TYPE": 0 }, "geometry": { "type": "LineString", "coordinates": [ [ 1019053.361232514027506, 6282632.307383346371353 ], [ 1019205.859356769709848, 6282471.242049575783312 ], [ 1019467.570860666572116, 6282375.98685219231993 ] ] } },
{ "type": "Feature", "properties": { "id": null, "TYPE": 0 }, "geometry": { "type": "LineString", "coordinates": [ [ 1019720.939330982742831, 6281621.984786506742239 ], [ 1019676.415553228114732, 6282068.552382118068635 ], [ 1019712.516598378540948, 6282247.563248003832996 ] ] } },
{ "type": "Feature", "properties": { "id": null, "TYPE": 0 }, "geometry": { "type": "LineString", "coordinates": [ [ 1020937.11544752784539, 6280109.661435319110751 ], [ 1020198.205092530813999, 6279635.618898632004857 ], [ 1019849.014919493929483, 6279312.051355047151446 ] ] } },
{ "type": "Feature", "properties": { "id": null, "TYPE": 0 }, "geometry": { "type": "LineString", "coordinates": [ [ 1020210.857891314546578, 6281092.621351636014879 ], [ 1020423.037164005218074, 6281039.754540299996734 ], [ 1020537.470006516668946, 6281119.905033065006137 ] ] } },
{ "type": "Feature", "properties": { "id": null, "TYPE": 0 }, "geometry": { "type": "LineString", "coordinates": [ [ 1020516.123535435297526, 6280753.059272168204188 ], [ 1020604.925273470696993, 6280927.735218414105475 ], [ 1020662.500026702415198, 6281098.50779155921191 ] ] } },
{ "type": "Feature", "properties": { "id": null, "TYPE": 0 }, "geometry": { "type": "LineString", "coordinates": [ [ 1020095.047162223490886, 6280428.591383188962936 ], [ 1019821.811045191599987, 6280452.011621791869402 ], [ 1019650.062628771411255, 6280606.19485925976187 ] ] } },
{ "type": "Feature", "properties": { "id": null, "TYPE": 0 }, "geometry": { "type": "LineString", "coordinates": [ [ 1019278.50225235032849, 6281343.572361413389444 ], [ 1019315.937412313534878, 6281446.424618106335402 ], [ 1019440.685969557147473, 6281339.141163039952517 ] ] } },
{ "type": "Feature", "properties": { "id": null, "TYPE": 0 }, "geometry": { "type": "LineString", "coordinates": [ [ 1019172.548137236852199, 6281985.543434679508209 ], [ 1019186.815754826646298, 6281801.96047807764262 ], [ 1019216.509164535091259, 6281683.037828373722732 ] ] } },
{ "type": "Feature", "properties": { "id": null, "TYPE": 0 }, "geometry": { "type": "LineString", "coordinates": [ [ 1018954.656603501876816, 6281156.682354967109859 ], [ 1019033.672181443427689, 6281254.958317141979933 ], [ 1019128.727815044228919, 6281293.338610292412341 ] ] } },
{ "type": "Feature", "properties": { "id": null, "TYPE": 0 }, "geometry": { "type": "LineString", "coordinates": [ [ 1017409.450739029212855, 6283682.97298115119338 ], [ 1017220.522608590312302, 6283942.976452658884227 ], [ 1017056.44951798254624, 6284108.205487325787544 ] ] } },
{ "type": "Feature", "properties": { "id": null, "TYPE": 0 }, "geometry": { "type": "LineString", "coordinates": [ [ 1016247.573157918290235, 6286319.331504322588444 ], [ 1016350.304452035226859, 6286425.273151380941272 ], [ 1016568.608452033717185, 6286489.480210203677416 ] ] } },
{ "type": "Feature", "properties": { "id": null, "TYPE": 0 }, "geometry": { "type": "LineString", "coordinates": [ ] } },
{ "type": "Feature", "properties": { "id": null, "TYPE": 0 }, "geometry": { "type": "LineString", "coordinates": [ ] } },
{ "type": "Feature", "properties": { "id": null, "TYPE": 0 }, "geometry": { "type": "LineString", "coordinates": [ ] } },
{ "type": "Feature", "properties": { "id": null, "TYPE": 0 }, "geometry": { "type": "LineString", "coordinates": [ [ 1018457.288512447266839, 6281721.092915389686823 ], [ 1018559.902193913352676, 6281483.461231994442642 ], [ 1018489.692832910222933, 6281164.818747442215681 ] ] } },
{ "type": "Feature", "properties": { "id": null, "TYPE": 0 }, "geometry": { "type": "LineString", "coordinates": [ [ 1018333.071950672427192, 6280786.768342040479183 ], [ 1018327.671230595209636, 6280505.93089802749455 ], [ 1018376.277711289701983, 6280295.302815018221736 ] ] } },
{ "type": "Feature", "properties": { "id": null, "TYPE": 0 }, "geometry": { "type": "LineString", "coordinates": [ [ 1018500.49427306454163, 6279998.26321077439934 ], [ 1018397.880591598455794, 6279841.642328536137938 ] ] } },
{ "type": "Feature", "properties": { "id": null, "TYPE": 0 }, "geometry": { "type": "LineString", "coordinates": [ [ 1019072.211124983732589, 6280437.240489546209574 ], [ 1019003.351943999878131, 6280629.64114229567349 ], [ 1018995.250863884110004, 6280832.168145189061761 ] ] } },
{ "type": "Feature", "properties": { "id": null, "TYPE": 0 }, "geometry": { "type": "LineString", "coordinates": [ [ 1018964.871813450125046, 6279971.428382890298963 ], [ 1019009.427754086675122, 6280113.197284916415811 ], [ 1019003.351943999878131, 6280238.764026710763574 ] ] } },
{ "type": "Feature", "properties": { "id": null, "TYPE": 0 }, "geometry": { "type": "LineString", "coordinates": [ [ 1019316.762480978155509, 6279789.829170296899974 ], [ 1019149.340158585924655, 6279206.551401960663497 ], [ 1019062.928637351491489, 6278642.176153897307813 ] ] } },
{ "type": "Feature", "properties": { "id": null, "TYPE": 0 }, "geometry": { "type": "LineString", "coordinates": [ [ 1018717.282552412711084, 6278877.107477255165577 ], [ 1018393.23934778268449, 6278990.522598875686526 ] ] } },
{ "type": "Feature", "properties": { "id": null, "TYPE": 0 }, "geometry": { "type": "LineString", "coordinates": [ [ 1018150.206944310222752, 6278817.699556406587362 ], [ 1018161.00838446454145, 6278401.844110464677215 ] ] } },
{ "type": "Feature", "properties": { "id": null, "TYPE": 0 }, "geometry": { "type": "LineString", "coordinates": [ ] } },
{ "type": "Feature", "properties": { "id": null, "TYPE": 0 }, "geometry": { "type": "LineString", "coordinates": [ [ 1018801.66880361828953, 6277713.252300625666976 ], [ 1018789.517183444579132, 6277584.985198793001473 ], [ 1018740.910702750086784, 6277497.22349753882736 ] ] } },
{ "type": "Feature", "properties": { "id": null, "TYPE": 0 }, "geometry": { "type": "LineString", "coordinates": [ [ 1017961.856831618817523, 6278605.721293375827372 ], [ 1017864.643870229832828, 6278386.992130250670016 ], [ 1017797.134869265253656, 6278187.165487395599484 ] ] } },
{ "type": "Feature", "properties": { "id": null, "TYPE": 0 }, "geometry": { "type": "LineString", "coordinates": [ [ 1016735.893374102073722, 6277819.916522148065269 ], [ 1016835.806695529725403, 6277579.584478714503348 ], [ 1016733.193014063523151, 6277471.570077171549201 ] ] } },
{ "type": "Feature", "properties": { "id": null, "TYPE": 0 }, "geometry": { "type": "LineString", "coordinates": [ [ 1017546.001385677023791, 6277582.284838752821088 ], [ 1017454.189144365256652, 6277431.064676592126489 ], [ 1017262.463581625837833, 6277382.458195897750556 ] ] } },
{ "type": "Feature", "properties": { "id": null, "TYPE": 0 }, "geometry": { "type": "LineString", "coordinates": [ [ 1017745.828028532094322, 6277260.941994161345065 ], [ 1017805.235949380905367, 6277147.526872540824115 ], [ 1017902.448910769890063, 6277098.920391846448183 ] ] } },
{ "type": "Feature", "properties": { "id": null, "TYPE": 0 }, "geometry": { "type": "LineString", "coordinates": [ [ 1018642.347561341593973, 6279502.240826185792685 ], [ 1018523.531719643971883, 6279270.009862867183983 ], [ 1018339.90723702032119, 6279210.601942018605769 ] ] } },
{ "type": "Feature", "properties": { "id": null, "TYPE": 0 }, "geometry": { "type": "LineString", "coordinates": [ [ 1016316.97164177626837, 6287195.925595445558429 ], [ 1016357.709339695749804, 6287321.235043758526444 ], [ 1016398.447037615231238, 6287446.544492072425783 ] ] } },
{ "type": "Feature", "properties": { "id": 0, "TYPE": 1 }, "geometry": { "type": "LineString", "coordinates": [ [ 1013869.029163501225412, 6286556.98579828441143 ], [ 1013822.327312755514868, 6286613.302735948003829 ], [ 1013753.648120482452214, 6286649.015915930271149 ] ] } },
{ "type": "Feature", "properties": { "id": null, "TYPE": 0 }, "geometry": { "type": "LineString", "coordinates": [ [ 1017211.99485799681861, 6284583.410943070426583 ], [ 1017307.158403135021217, 6284638.879854096099734 ], [ 1017334.969936475739814, 6284710.604334817267954 ] ] } },
{ "type": "Feature", "properties": { "id": null, "TYPE": 0 }, "geometry": { "type": "LineString", "coordinates": [ [ 1020894.750726179569028, 6280711.098011339083314 ], [ 1020864.011663013836369, 6280841.861010203137994 ], [ 1020866.451271201251075, 6280975.551538894884288 ] ] } }
]
}
